[{"OBJECT_NAME":"STARLINK-35397","OBJECT_ID":"2025-221C","EPOCH":"2026-03-09T10:25:17.059872","MEAN_MOTION":15.30173529,"ECCENTRICITY":0.00012492,"INCLINATION":53.1597,"RA_OF_ASC_NODE":89.577,"ARG_OF_PERICENTER":79.9903,"MEAN_ANOMALY":280.1239,"EPHEMERIS_TYPE":0,"CLASSIFICATION_TYPE":"U","NORAD_CAT_ID":65825,"ELEMENT_SET_NO":999,"REV_AT_EPOCH":2604,"BSTAR":0.00057239237,"MEAN_MOTION_DOT":0.00016618,"MEAN_MOTION_DDOT":0},{"OBJECT_NAME":"NOAA 16 DEB","OBJECT_ID":"2000-055BK","EPOCH":"2026-03-09T02:17:10.174560","MEAN_MOTION":15.30191008,"ECCENTRICITY":0.00052528,"INCLINATION":98.9831,"RA_OF_ASC_NODE":305.6383,"ARG_OF_PERICENTER":26.64,"MEAN_ANOMALY":333.5104,"EPHEMERIS_TYPE":0,"CLASSIFICATION_TYPE":"U","NORAD_CAT_ID":41128,"ELEMENT_SET_NO":999,"REV_AT_EPOCH":53406,"BSTAR":0.017668961,"MEAN_MOTION_DOT":0.00549039,"MEAN_MOTION_DDOT":0}]
